#aV2016  2 27  0  0  0.00000000     288 DD+AD WGS84 FIT  NGA
## 1885 518400.00000000   300.00000000 57445 0.0000000000000
+   30     1  2  3  5  6  7  8  9 10 11 12 13 14 15 16 17 18
+         19 20 21 22 23 24 25 26 27 28 29 30 31  0  0  0  0
+          0  0  0  0  0  0  0  0  0  0  0  0  0  0  0  0  0
+          0  0  0  0  0  0  0  0  0  0  0  0  0  0  0  0  0
+          0  0  0  0  0  0  0  0  0  0  0  0  0  0  0  0  0
++         2  2  2  2  2  2  2  2  2  2  2  2  2  2  2  2  2
++         2  2  2  2  2  2  2  2  2  2  2  2  2  0  0  0  0
++         0  0  0  0  0  0  0  0  0  0  0  0  0  0  0  0  0
++         0  0  0  0  0  0  0  0  0  0  0  0  0  0  0  0  0
++         0  0  0  0  0  0  0  0  0  0  0  0  0  0  0  0  0
%c cc cc ccc ccc cccc cccc cccc cccc ccccc ccccc ccccc ccccc
%c cc cc ccc ccc cccc cccc cccc cccc ccccc ccccc ccccc ccccc
%f  0.0000000  0.000000000  0.00000000000  0.000000000000000
%f  0.0000000  0.000000000  0.00000000000  0.000000000000000
%i    0    0    0    0      0      0      0      0         0
%i    0    0    0    0      0      0      0      0         0
/*      NGA, ST. LOUIS,MO.                                  
/*   EPHEMERIS COMPUTED FROM 2 DAYS OF DATA                 
/*   EPOCHA v2.4 SMOOTHER                                   
/*   G1762 IERS2010 SATAF SATAPC                            
*  2016  2 27 19  0  0.00000000
P  1 -22539.178044 -13522.792691   4495.778063     12.898554                    
V  1  -3029.980704  -5498.329273 -31001.725264      0.010498                    
P  2   9346.320609  20179.411096  15246.223922    599.452662                    
V  2 -16272.392711  -9035.178970  22153.744618     -0.001471                    
P  3 -13584.137981  -9144.314547  20911.020762    -29.818266                    
V  3   4214.498041 -26230.996746  -8744.996948     -0.045662                    
P  5   3418.718670  24749.926851  -8787.043560   -142.274196                    
V  5  -4421.798242  10694.572864  28819.679183      0.033732                    
P  6  -5019.726606  14883.658651  21428.288179    152.194071                    
V  6 -21928.157865 -16059.609720   6015.440078      0.059371                    
P  7 -20192.698428   -935.747075 -17299.318653    467.724887                    
V  7 -16308.148231 -14914.536204  19310.342475     -0.017165                    
P  8 -13675.308960  -9746.215461 -20524.597404    -25.499511                    
V  8  23749.956162 -11062.648875 -10520.929714     -0.014263                    
P  9 -25152.911983   7427.756361   4212.452857     79.310803                    
V  9   3804.068361  -4800.830106  31021.572953      0.076366                    
P 10  10911.118865 -21176.038215 -11677.973245     37.276236                    
V 10    570.276461  15056.888246 -26799.129894     -0.061980                    
P 11 -23430.543140 -11551.122144  -5495.996588   -634.306933                    
V 11   7415.969468  -2548.593473 -29142.257308     -0.017665                    
P 12  10795.976175  13739.551379  19956.658523    370.214653                    
V 12  -5275.112021  24911.146236 -13999.757723      0.016302                    
P 13   4592.128287  14327.131946 -22024.264078   -188.278984                    
V 13 -26493.162366   7745.292916   -575.385953     -0.028733                    
P 14  18585.446646 -14832.425283  11928.017134      0.563785                    
V 14  14790.225701  -2428.690196 -26769.891046     -0.022307                    
P 15  18186.770617   6486.446561 -18503.721274   -299.227163                    
V 15 -20170.028168  11631.553797 -15508.105191     -0.017868                    
P 16   -844.328755 -24878.004797  -8767.621284    -36.364572                    
V 16   4137.110987 -10478.574023  30010.632509      0.030500                    
P 17 -19306.820621  14793.898934  10760.607237   -201.306789                    
V 17 -13150.960542   2524.150031 -28107.812849     -0.004974                    
P 18  15113.642031 -10384.561926 -18600.642264    488.014478                    
V 18   -431.816263  25017.039628 -14197.451079      0.039969                    
P 19 -10882.169558  16198.150351  17967.473808   -525.004911                    
V 19 -22436.567260   5641.980104 -18064.364496     -0.002362                    
P 20  13766.103155  12500.799381 -19103.175781    395.738375                    
V 20  -2867.399765  23962.582004  13781.062037      0.025965                    
P 21  18421.144089  -3212.263728 -18226.765661   -512.468146                    
V 21  18883.489091  15986.686741  15365.104331     -0.017446                    
P 22  -3041.653210 -25333.247760   7357.793772    390.316072                    
V 22   4722.081425  -8698.942496 -29069.661964     -0.062161                    
P 23 -22771.898371  -1532.642335  14115.917308   -162.126388                    
V 23  15323.781815  -8707.741227  23640.451068     -0.018225                    
P 24  22043.443784  14941.911184   1336.650629    -13.100493                    
V 24   -345.951676   3440.453378 -31336.059034     -0.006231                    
P 25  14851.804352     -8.324668  21900.452193   -124.623624                    
V 25  -3386.068291  27824.752783   2481.147627     -0.068010                    
P 26   4584.956111 -26066.307521   1941.415563   -271.775790                    
V 26   2522.347155   2796.668313  31657.252327     -0.152419                    
P 27  -2623.426778 -15052.474831 -21732.111720     66.887782                    
V 27  25525.868020 -10323.571808   4223.292967      0.036702                    
P 28 -11967.164527  20286.792743 -11592.515004    505.408929                    
V 28   1389.010521 -15733.382789 -27533.048669      0.025589                    
P 29  25283.187200  -3834.172441   7108.010255    655.007061                    
V 29  -7737.331348   5112.766738  30395.308104      0.006081                    
P 30 -13131.500503   8692.748099 -21403.749283    101.127365                    
V 30 -20099.642374 -18298.710306   4819.893901      0.041462                    
P 31   3413.694266 -15810.521943  21104.006804    280.759935                    
V 31  21106.664708  16194.897586   9119.859343     -0.016549                    
EOF
